HIERARCHY
ROOT Pelvis
{
  OFFSET -0.001795 -0.190827 0.028219
  CHANNELS 6 Xposition Yposition Zposition Zrotation Xrotation Yrotation
  JOINT L_Hip
  {
    OFFSET 0.082372 -0.089938 -0.003102
    CHANNELS 3 Zrotation Xrotation Yrotation
    JOINT L_Knee
    {
      OFFSET 0.01926 -0.377317 -0.010454
      CHANNELS 3 Zrotation Xrotation Yrotation
      JOINT L_Ankle
      {
        OFFSET 0.001238 -0.398138 -0.052122
        CHANNELS 3 Zrotation Xrotation Yrotation
        JOINT L_Foot
        {
          OFFSET 0.012558 -0.07164 0.142706
          CHANNELS 3 Zrotation Xrotation Yrotation
          End Site
          {
            OFFSET 0.006272 -0.035781 0.071277
          }
        }
      }
    }
  }
  JOINT R_Hip
  {
    OFFSET -0.078782 -0.089938 -0.003102
    CHANNELS 3 Zrotation Xrotation Yrotation
    JOINT R_Knee
    {
      OFFSET -0.017276 -0.377413 -0.010454
      CHANNELS 3 Zrotation Xrotation Yrotation
      JOINT R_Ankle
      {
        OFFSET 0.000855 -0.398139 -0.052122
        CHANNELS 3 Zrotation Xrotation Yrotation
        JOINT R_Foot
        {
          OFFSET -0.012182 -0.071705 0.142706
          CHANNELS 3 Zrotation Xrotation Yrotation
          End Site
          {
            OFFSET -0.006085 -0.035814 0.071277
          }
        }
      }
    }
  }
  JOINT Spine1
  {
    OFFSET 0.001795 0.094186 0.003507
    CHANNELS 3 Zrotation Xrotation Yrotation
    JOINT Spine2
    {
      OFFSET 0 0.122622 -0.002541
      CHANNELS 3 Zrotation Xrotation Yrotation
      JOINT Spine3
      {
        OFFSET 0 0.08026 -0.024173
        CHANNELS 3 Zrotation Xrotation Yrotation
        JOINT Neck
        {
          OFFSET 0 0.19583 -0.019966
          CHANNELS 3 Zrotation Xrotation Yrotation
          JOINT Head
          {
            OFFSET 0 0.095644 -0.0015
            CHANNELS 3 Zrotation Xrotation Yrotation
            End Site
            {
              OFFSET 0 0.07999 -0.001255
            }
          }
        }
        JOINT L_Collar
        {
          OFFSET 0.054692 0.118833 -0.025245
          CHANNELS 3 Zrotation Xrotation Yrotation
          JOINT L_Shoulder
          {
            OFFSET 0.11066 0.012381 0.003373
            CHANNELS 3 Zrotation Xrotation Yrotation
            JOINT L_Elbow
            {
              OFFSET 0.268091 0.011931 -0.012702
              CHANNELS 3 Zrotation Xrotation Yrotation
              JOINT L_Wrist
              {
                OFFSET 0.269043 0.004034 -0.013169
                CHANNELS 3 Zrotation Xrotation Yrotation
                End Site
                {
                  OFFSET 0.079895 0.001198 -0.003911
                }
              }
            }
          }
        }
        JOINT R_Collar
        {
          OFFSET -0.054692 0.118833 -0.025245
          CHANNELS 3 Zrotation Xrotation Yrotation
          JOINT R_Shoulder
          {
            OFFSET -0.11066 0.012381 0.003373
            CHANNELS 3 Zrotation Xrotation Yrotation
            JOINT R_Elbow
            {
              OFFSET -0.268091 0.011931 -0.012702
              CHANNELS 3 Zrotation Xrotation Yrotation
              JOINT R_Wrist
              {
                OFFSET -0.269043 0.004034 -0.013169
                CHANNELS 3 Zrotation Xrotation Yrotation
                End Site
                {
                  OFFSET -0.079895 0.001198 -0.003911
                }
              }
            }
          }
        }
      }
    }
  }
}
MOTION
Frames: 90
Frame Time: 0.033333
0.048934 1.143824 0.047944 0.368876 -2.51451 15.160173 19.931639 -19.898757 19.319506 2.816202 39.952834 -4.173685 -11.141818 -6.621138 -3.926673 -5.396315 -19.831622 -14.505606 -30.950569 -21.20372 -40.638725 -2.208602 38.087849 3.628759 25.622064 -0.376596 4.033837 -33.023171 -10.129139 9.818491 0.855761 3.612421 -3.512708 3.070252 13.348037 -10.11475 2.553295 10.441254 -7.598853 -10.451736 -0.183127 -14.682649 21.194345 9.32388 -8.013179 -3.272358 2.416851 -47.926261 -43.76021 -5.887989 -41.125446 15.21167 2.095076 -47.040202 7.982853 -3.592825 2.134638 16.20664 -8.725664 41.258538 39.31424 7.131271 31.863144 -7.147744 -19.001419 53.249824 -39.623664 -58.330996 15.071935
0.038709 1.135916 0.065401 0.71093 -4.482848 16.858669 21.049333 -18.482052 18.978777 2.690554 40.670746 -4.664086 -9.394586 -6.066716 -4.742055 -10.744146 -20.605342 -15.194368 -30.634238 -18.954326 -39.366807 -2.704944 38.307961 3.66333 27.196988 -1.158803 3.682444 -34.908445 -7.440463 11.53182 1.053981 3.63963 -2.686526 1.990401 13.72906 -8.952537 2.477364 9.657188 -6.395078 -13.031258 -2.126359 -14.463134 22.158175 11.322367 -9.520957 -3.216619 1.816143 -50.187133 -38.617563 -8.987743 -40.989131 14.403506 1.210205 -50.452851 15.100453 -5.467949 8.114843 16.004334 -8.260257 44.283253 35.405315 5.581662 33.561668 -8.813839 -22.989545 52.748216 -39.121476 -56.515153 18.295859
0.030286 1.13308 0.080068 1.057749 -6.710167 19.537435 22.679831 -17.19678 19.010723 2.735048 41.602249 -5.69226 -7.005471 -5.127725 -5.814732 -17.424922 -21.353477 -15.855792 -29.912651 -15.919645 -37.274091 -3.317707 37.795358 3.718001 28.898089 -2.198442 2.739571 -36.971392 -4.073148 13.658235 1.438504 3.622586 -1.396502 0.686509 13.963479 -7.036395 2.64864 8.498301 -4.487761 -17.621621 -5.37983 -14.171412 24.895639 14.926757 -12.991139 -3.115237 0.803887 -53.097211 -31.711054 -13.147937 -40.74945 12.44139 0.044658 -54.674289 25.773501 -7.751752 15.454164 15.582523 -8.06145 48.573418 30.016032 3.248095 35.292517 -11.638535 -28.091373 51.650738 -38.457925 -53.466253 21.167727
0.025081 1.131157 0.090781 1.418048 -8.417184 23.781914 24.300373 -17.277613 19.462586 3.024058 42.81487 -7.082499 -4.333933 -3.901703 -7.146309 -23.470119 -21.649098 -16.081085 -29.215198 -12.260314 -35.065763 -3.616895 36.404944 3.245075 29.808426 -2.981951 1.180076 -38.587615 -1.265978 15.51934 1.868978 3.607715 0.204572 -0.453521 13.745346 -4.677531 3.083699 7.324909 -2.161612 -23.65204 -9.46332 -14.573748 29.893959 19.47467 -19.295907 -2.764473 -0.74887 -56.032084 -24.374144 -17.722586 -40.901151 9.156939 -1.26847 -57.856801 39.105788 -10.980769 20.966078 15.183576 -8.681369 53.385078 23.769422 0.955094 36.195575 -15.595089 -34.069744 49.644164 -38.128766 -48.937009 22.700867
0.022796 1.12798 0.098254 2.094493 -9.25697 30.367329 25.159966 -19.456919 19.556701 3.399886 44.51392 -8.444907 -1.423046 -2.651016 -8.83704 -28.335149 -21.392284 -15.840807 -29.274522 -7.961169 -34.070493 -3.548436 35.040626 1.882086 29.704567 -3.299901 -0.401828 -39.812618 0.483096 16.752421 2.027108 3.597373 1.837821 -1.36378 13.016109 -2.525687 3.197107 6.271009 0.053637 -28.321841 -12.173312 -16.815949 34.401918 22.373621 -26.454646 -1.120417 -2.618689 -57.991841 -17.533874 -23.095379 -42.16462 5.355097 -3.591493 -59.288626 52.767451 -15.29254 24.05744 14.966408 -9.956176 57.773382 17.190959 -0.951656 36.439789 -19.386014 -41.353433 47.578869 -39.354869 -42.983902 22.401888
0.02214 1.122948 0.104299 2.959559 -9.133727 38.328546 25.132155 -23.259351 18.967127 3.632939 46.494362 -9.616599 1.45626 -1.590653 -10.751895 -32.178996 -20.913527 -15.358154 -29.940625 -3.822433 -34.944137 -3.542251 34.717172 0.351215 29.017493 -3.936045 -1.36602 -40.699535 1.735011 17.363476 1.840298 3.47798 3.278448 -2.223954 11.892243 -0.862804 2.38773 4.95081 2.015028 -28.845236 -11.759559 -21.013881 33.940324 22.109787 -29.839678 2.680214 -4.002101 -57.469417 -12.505641 -29.83867 -44.615883 2.041128 -7.190356 -60.393464 62.086002 -18.831796 26.261318 14.67245 -11.076933 60.856396 11.193442 -3.105239 36.607518 -19.899573 -48.616112 47.864915 -41.073051 -37.518202 20.754667
0.021254 1.116532 0.111323 3.522101 -8.438311 45.63577 24.98163 -27.377953 18.508549 3.766714 48.32229 -10.726194 3.851334 -0.693868 -12.75656 -35.255859 -20.537878 -14.802281 -30.549118 -0.671234 -36.954971 -3.670266 35.614597 -0.655217 27.920536 -5.555919 -1.725849 -41.252202 3.020616 17.761435 1.576903 3.292117 4.584249 -3.165036 10.590339 0.689765 0.804696 3.252831 4.249025 -25.932085 -9.992241 -26.453305 28.622357 19.893031 -28.68825 7.15831 -4.5121 -55.015319 -9.798119 -37.283485 -46.542155 -1.070504 -10.333905 -63.298901 66.085515 -20.765177 29.352862 14.40897 -11.677934 63.347414 5.684309 -5.244623 36.03431 -16.204944 -54.113167 51.086001 -39.738552 -35.477297 19.814653
0.01911 1.11004 0.120854 3.707572 -7.664471 51.21006 25.206807 -30.795389 18.80405 3.915909 49.747912 -11.643533 5.599108 0.226303 -14.679865 -37.745034 -20.364583 -14.233234 -30.829282 1.336345 -38.972656 -3.79274 37.071366 -0.973067 26.348093 -7.855708 -2.154068 -41.560187 4.267601 18.210499 1.388799 3.139075 5.883191 -4.063854 9.428739 2.332648 -1.007857 1.620092 7.014935 -22.262928 -9.237822 -32.157726 22.196978 17.349899 -25.832087 10.190697 -4.708441 -52.634788 -8.276729 -43.02212 -45.701142 -3.220723 -12.829419 -68.199128 66.166552 -22.748142 34.141367 14.208822 -11.855242 66.417547 0.404246 -6.501437 33.801125 -10.564885 -57.866543 55.191671 -34.232521 -36.888668 20.633911
0.017143 1.105105 0.132477 3.852042 -6.984035 55.198918 25.476711 -33.114883 19.508909 3.979887 50.655827 -12.044143 6.850602 1.3007 -16.332056 -39.503341 -20.330282 -13.589767 -30.827989 2.600861 -40.371972 -3.945983 38.30985 -0.677639 24.510046 -10.194545 -3.391272 -41.852836 5.150925 18.644107 1.184846 2.990691 7.04446 -4.712546 8.66409 3.843273 -2.644011 0.42722 9.787928 -19.408537 -9.634556 -37.054825 17.081341 15.465051 -23.350949 11.171311 -4.95088 -51.302898 -5.956935 -44.625899 -41.326181 -2.84989 -17.2514 -73.861612 64.50798 -26.275306 40.290574 13.990759 -11.712762 69.800948 -3.886748 -6.930947 30.751847 -5.921796 -60.361966 57.897805 -25.618243 -39.822697 23.139495
0.017235 1.103121 0.144762 4.28438 -6.414844 58.382235 25.257643 -34.357692 19.914096 3.861554 51.015671 -11.878022 7.646436 2.606816 -17.577482 -40.230538 -20.275062 -12.813808 -30.577097 3.830132 -40.959213 -4.112729 38.927674 -0.300045 22.674764 -12.09292 -5.54481 -42.248674 5.522261 18.745266 0.88578 2.812804 7.807842 -5.032757 8.355914 4.967719 -3.899475 -0.305598 11.885198 -17.502014 -10.11068 -40.535221 13.839679 14.63455 -21.94755 11.01068 -4.725783 -50.452549 -4.365978 -42.647492 -37.06776 -0.535777 -23.963146 -79.035008 63.356762 -30.285086 45.020288 13.775721 -11.32731 72.151938 -6.388245 -7.547604 28.714028 -3.977789 -61.100675 58.44072 -16.520872 -42.689869 27.847048
0.020943 1.10359 0.154639 5.080672 -6.01231 61.407723 24.440516 -34.843069 19.562278 3.502395 51.09307 -11.303106 7.942588 4.054475 -18.302958 -40.033522 -20.018862 -12.003649 -30.010478 5.551882 -40.72048 -4.156847 38.885025 -0.545103 21.138553 -13.469173 -7.992398 -42.505731 5.745083 18.288648 0.563171 2.62605 8.137959 -5.093006 8.364962 5.644947 -4.690903 -0.798018 13.212979 -16.239681 -9.950883 -42.73655 12.31976 14.912661 -21.42132 11.093889 -3.623329 -49.122508 -6.666152 -40.833106 -37.477061 2.043899 -29.384618 -82.783309 62.835372 -33.309409 45.262804 13.296672 -10.789882 72.698279 -7.23057 -8.872971 28.259429 -3.080368 -59.929763 59.532583 -12.054157 -43.63093 33.679287
0.027665 1.104211 0.162058 6.025265 -5.718681 64.276087 23.154672 -35.066441 18.340545 2.921318 51.349346 -10.523753 7.939032 5.33228 -18.358228 -39.534013 -19.615326 -11.331484 -29.258978 7.664635 -39.857523 -4.042101 38.432971 -1.529733 19.955866 -14.843144 -9.794431 -42.476843 6.228863 17.403021 0.308223 2.432355 8.233978 -5.07775 8.422603 6.067419 -5.097844 -1.300076 14.133791 -15.223115 -9.337575 -43.91345 11.80509 15.749546 -20.972552 12.155261 -2.093242 -46.87291 -11.904084 -41.36888 -42.520366 2.983423 -31.214678 -85.311315 61.673458 -33.565219 41.134999 12.282669 -10.211571 71.830159 -6.928622 -10.686033 28.956098 -1.068466 -58.116597 64.179578 -15.437432 -42.024661 36.275197
0.035442 1.102372 0.167022 6.918298 -5.406826 66.571787 21.410345 -35.479343 16.268445 2.307168 52.242488 -9.62595 7.802278 6.208431 -17.625716 -39.501272 -19.222152 -10.815078 -28.77371 9.725145 -38.58255 -3.879218 37.971764 -2.647102 18.954387 -17.211412 -10.336293 -42.209736 7.045432 16.471102 0.127617 2.258092 8.293002 -5.083486 8.376025 6.517154 -5.29356 -1.966327 14.937348 -14.193726 -8.822117 -44.1125 11.498415 16.491456 -20.161746 14.290498 -0.93039 -43.971446 -17.227983 -43.739203 -49.51966 1.68271 -30.348688 -86.779631 60.155128 -30.88117 34.704416 10.431892 -9.738684 70.035328 -6.505974 -13.027803 30.265932 1.627843 -57.036535 71.032587 -22.577389 -38.728611 35.606074
0.041774 1.096744 0.169679 7.764706 -5.015258 68.021021 19.33406 -36.249421 13.708527 1.623264 53.963111 -8.443589 7.566856 6.679447 -16.283548 -40.08683 -18.905666 -10.377448 -29.099095 11.340782 -37.239064 -3.925041 37.977344 -2.977076 17.904858 -21.140507 -9.821078 -41.668171 7.959477 15.758345 0.034728 2.143585 8.354595 -4.961384 8.308348 7.039912 -5.379676 -2.649787 15.649048 -13.27941 -8.508804 -43.487452 11.238323 16.850325 -19.208846 17.50897 -0.641309 -40.784442 -21.547731 -46.892502 -56.331506 -0.559111 -29.251757 -87.535494 59.293363 -27.349009 27.851456 7.324133 -9.632867 67.453779 -7.334449 -16.125708 31.463919 3.811701 -57.180282 77.281602 -28.709369 -34.325398 35.042877
0.047703 1.087668 0.168325 8.670727 -4.583481 68.571583 17.399316 -37.160664 11.554903 0.57639 56.252488 -6.819091 7.459332 6.839392 -14.812078 -40.699367 -18.7564 -9.977642 -30.587727 12.229721 -36.249679 -4.326696 38.864816 -2.284947 16.517463 -25.41922 -9.076888 -40.793609 8.519907 15.216371 0.041862 2.131931 8.2907 -4.343076 8.330934 7.276416 -5.299173 -2.784302 15.976931 -12.508983 -7.942382 -41.989086 11.296112 16.531844 -18.329681 21.61252 -1.494468 -37.633154 -23.583358 -49.904965 -60.292353 -2.339946 -30.786802 -89.038866 59.123714 -25.487143 21.662453 3.107762 -10.313204 64.550698 -10.047068 -19.531889 31.762691 5.87224 -58.737277 83.308423 -33.623517 -27.88159 36.406357
0.053067 1.07641 0.162823 9.510269 -4.207534 68.270466 15.924248 -38.036051 10.395437 -0.725534 58.562533 -5.01298 7.576736 6.898605 -13.379542 -40.59598 -18.801893 -9.561816 -33.137389 12.142288 -35.743069 -4.927854 40.542279 -1.331643 14.714546 -27.691858 -8.713488 -39.516726 8.403317 14.606818 0.042431 2.139466 7.908075 -2.997514 8.321531 6.803508 -4.990401 -2.027246 15.505199 -11.330729 -6.647405 -39.511693 11.785446 15.376563 -17.636516 26.070709 -3.309037 -34.733268 -20.767552 -52.759279 -58.488066 -3.878621 -35.610161 -92.347489 59.802576 -25.316219 16.363624 -1.384577 -11.678014 61.6528 -14.260979 -22.942807 31.288448 9.377232 -61.621591 91.38571 -38.709289 -19.114244 39.928516
0.05842 1.066913 0.153202 9.672667 -3.844458 67.1765 15.011053 -39.199479 10.323176 -1.921399 60.350815 -3.255322 7.724627 6.961705 -11.96637 -39.25505 -18.864874 -9.08121 -36.090296 10.715127 -35.931028 -5.429239 42.409584 -0.742713 12.590862 -26.952425 -8.891926 -37.906095 7.580334 13.779762 -0.073149 1.967043 7.235678 -1.280672 8.03621 5.812532 -4.627923 -0.790303 14.217299 -8.856983 -5.01268 -37.115948 11.691066 13.40972 -17.325549 30.172638 -5.533718 -32.200064 -12.305213 -55.165305 -50.283053 -5.880944 -41.490974 -96.848167 61.843803 -25.176731 12.849919 -4.927926 -13.20035 58.706881 -18.66073 -26.78898 31.128603 14.728833 -64.561593 101.389715 -43.651621 -10.516339 44.152215
0.065498 1.060478 0.140623 8.593651 -3.293596 65.198741 14.948921 -41.027663 11.588392 -2.843795 61.282904 -1.436453 7.724601 7.06416 -10.728453 -36.411851 -18.715948 -8.588415 -38.702276 7.559355 -37.265878 -5.69157 43.96146 -0.693215 9.854799 -23.705001 -9.801795 -36.112635 6.263481 12.73311 -0.230771 1.588118 6.559937 0.15901 7.427599 5.053703 -4.468646 0.364423 12.537258 -4.584825 -4.202716 -36.366071 9.263401 10.464568 -17.470526 33.361497 -8.150917 -30.346963 -0.965819 -55.275267 -37.890852 -7.289487 -47.093577 -100.937142 64.211382 -24.784563 12.705222 -6.574628 -15.076916 56.011822 -21.784259 -30.83453 32.353657 18.77862 -66.179148 108.292325 -46.178195 -5.838773 45.612508
0.074652 1.057345 0.127151 6.507024 -2.381561 61.997866 16.029032 -42.9069 14.722212 -3.007304 61.002467 0.139515 7.682795 7.542932 -9.819993 -32.573061 -18.283427 -8.172207 -40.481399 2.989476 -39.559163 -5.486031 44.684114 -1.847753 6.109756 -18.813406 -11.631871 -34.438572 4.874779 11.60581 -0.332766 1.153305 6.129294 0.972923 6.498556 4.798445 -4.629592 1.148081 10.922239 0.707636 -4.725472 -37.066138 4.908858 7.181978 -18.029101 34.969563 -11.351917 -29.927168 8.542092 -51.821317 -26.266921 -6.26691 -52.447291 -102.146327 66.316925 -25.281833 15.664449 -6.443254 -17.550944 54.530731 -22.80652 -33.501925 34.885618 19.151694 -66.776327 108.869491 -45.084364 -5.308393 42.606756
0.084563 1.061124 0.118181 4.453089 -1.090742 56.971749 17.703888 -43.269789 19.179674 -2.353974 59.046274 1.590168 7.83492 8.797048 -8.981712 -29.013222 -17.715393 -7.747784 -40.879072 -1.545439 -41.728627 -4.681655 43.64469 -4.707513 1.886748 -14.651749 -14.344268 -33.448024 3.904096 10.5377 -0.41545 0.803065 6.001836 0.880714 5.183089 4.788564 -5.240914 1.129938 9.667718 5.231485 -5.983263 -37.521995 1.395808 5.157872 -18.434997 34.053931 -14.235525 -31.431658 12.159125 -46.394406 -21.173125 -1.685673 -55.595718 -97.795019 69.387443 -27.313105 18.753714 -5.667727 -19.52533 54.606258 -21.003678 -34.493736 38.393761 15.95936 -66.101761 103.703988 -40.656019 -7.362153 37.007368
0.093988 1.077463 0.119098 3.799046 0.148818 49.007538 18.507266 -40.436933 22.994441 -1.464177 55.163947 3.317411 8.270455 11.578833 -6.782763 -26.570565 -17.443143 -7.003721 -39.464715 -4.480634 -42.21198 -4.030714 40.0919 -7.602615 -0.542047 -11.205699 -16.735349 -33.712747 3.751668 9.452115 -0.492207 0.53554 6.030361 -0.094954 3.652939 4.53846 -6.023752 0.036163 8.827935 6.853268 -6.832537 -36.047 1.994043 5.285031 -17.556688 30.423392 -15.531431 -33.789755 8.983642 -41.880883 -24.100355 4.56164 -54.479928 -89.483835 72.552914 -29.695172 18.194088 -5.931739 -19.671158 55.385943 -16.658689 -35.023968 43.617381 10.396606 -63.506169 94.34267 -35.818319 -10.908777 31.894975
0.10153 1.100921 0.129775 4.947548 0.402845 37.199286 17.795685 -34.245617 24.835066 -0.291081 49.750803 5.329436 8.529847 18.012233 -2.534996 -23.966204 -17.643037 -5.735784 -36.343815 -6.523355 -39.324399 -4.194507 35.679855 -8.543602 0.541109 -4.071621 -16.895399 -34.337777 4.809781 8.028675 -0.375436 0.215668 5.948879 -1.376674 2.411407 3.745459 -6.088149 -1.717142 8.191689 4.270913 -7.235124 -31.84286 7.989774 6.868156 -15.192669 25.751747 -15.141574 -34.563066 1.491892 -40.029035 -31.470815 9.157854 -50.988336 -82.023016 73.072875 -30.08776 13.787986 -8.500591 -17.837032 55.920025 -12.585521 -36.400013 50.88515 4.340274 -59.869648 83.16569 -36.160212 -14.713287 28.523713
0.099482 1.132228 0.157296 6.543738 -0.65271 23.374153 16.128692 -27.99154 23.976012 1.148713 44.513858 7.359482 7.265478 29.55137 1.127726 -17.581652 -17.480143 -4.048491 -30.972229 -10.607092 -31.791326 -4.912181 34.489352 -8.398407 2.405393 5.693818 -16.892412 -31.899442 6.696514 5.6844 -0.000177 -0.223194 5.29414 -2.536043 1.788978 2.637197 -5.135458 -3.000043 7.19511 -0.284436 -9.390488 -25.662668 15.94804 7.602388 -12.36795 22.694153 -13.943769 -32.293829 -6.808377 -42.654332 -40.272614 11.6134 -48.2646 -76.982797 72.208215 -27.713137 10.501236 -11.739938 -15.468408 56.193234 -13.012922 -38.859917 57.636319 -2.996335 -57.983022 69.725503 -41.83737 -17.973411 25.416614
0.08959 1.168952 0.198626 7.495725 -1.941321 11.656996 14.574899 -25.979051 21.296389 1.67863 41.837983 8.428746 5.007832 42.056095 0.129769 -7.37644 -15.854409 -2.80379 -23.52239 -16.252932 -22.654382 -5.58734 37.867788 -8.136489 3.93749 11.663994 -18.723908 -25.703022 7.409463 2.693199 0.220643 -0.637381 3.877191 -3.197997 1.723482 1.231629 -4.119487 -2.574945 5.519476 -1.336472 -14.904234 -19.801339 19.386737 5.524032 -8.62968 21.744535 -13.697191 -30.215979 -15.424967 -48.57344 -51.815604 14.900884 -48.972769 -71.684099 71.851258 -23.739243 13.745749 -11.19402 -16.46979 57.77961 -18.669436 -39.36779 57.855023 -10.121588 -57.405288 55.40446 -46.459011 -16.295785 18.607019
0.085217 1.201201 0.246763 7.77289 -3.330482 0.255464 13.919527 -27.883391 21.217216 0.440655 42.341374 8.170516 3.228784 46.05121 -5.059558 0.026813 -14.174543 -3.384906 -18.432468 -19.692869 -17.85588 -5.131283 43.128108 -6.749809 7.796937 11.784065 -19.425929 -21.206658 4.913339 0.843403 0.059015 -0.498571 2.110596 -3.078615 2.094756 -0.558247 -3.932102 -0.299925 3.52266 3.103647 -21.431205 -14.01302 16.604856 2.11805 -2.594515 18.377695 -16.16609 -34.436818 -24.99403 -48.535652 -64.07721 23.297819 -52.966156 -62.00005 67.729156 -18.170558 28.775444 -5.458698 -22.039353 62.146855 -21.255703 -34.69655 53.077541 -10.536066 -51.763474 45.924504 -39.954836 -4.691008 -3.069069
0.092018 1.217139 0.296718 5.736069 -7.296802 -19.990723 14.203455 -28.346381 25.428668 -0.819066 43.188515 6.913864 0.060108 40.144075 -8.406398 0.345673 -14.254791 -5.021505 -16.724281 -17.560522 -14.841592 -3.692265 44.601514 -3.774095 13.095735 9.479066 -15.361166 -22.111839 -0.615394 0.768989 -0.030343 0.748631 0.824113 -2.506479 2.829316 -2.170055 -4.110089 3.623062 1.993919 8.513653 -22.738308 -5.942704 12.12501 0.167855 5.837774 7.452563 -19.339155 -45.019832 -28.505584 -35.683382 -61.666382 28.061096 -50.160144 -53.770923 58.449416 -21.986066 52.444351 1.823603 -26.428073 67.103559 -15.20854 -25.346935 50.096315 -4.66687 -37.779335 41.266203 -14.862215 -5.45929 -43.464145
0.106603 1.211026 0.346167 -1.562216 -11.351018 -50.995326 16.043815 -25.429829 30.757288 -0.053837 39.965135 3.211147 -2.321522 34.419209 -9.720233 -2.338106 -14.668169 -6.563842 -16.72748 -11.128589 -10.365975 -2.753534 40.805542 0.350986 16.336382 5.769536 -7.201965 -25.970457 -6.923114 1.78274 0.181002 2.692267 0.604268 -2.15638 4.281705 -3.307474 -3.83485 9.073318 1.35357 9.517004 -16.590277 2.206059 7.994246 -0.903911 14.525845 -4.90033 -19.281611 -54.580626 -28.276514 -20.918992 -45.759788 19.448452 -34.973311 -52.421788 58.092479 -41.463342 66.36084 8.718334 -27.098625 70.291504 -4.771822 -10.976304 45.460794 0.753228 -27.966425 44.015764 -3.513016 -15.71596 -55.801984
0.122689 1.187424 0.395298 -8.964788 -8.808585 -80.160257 20.054522 -21.547408 34.110606 0.861298 33.4888 -1.430456 -4.121288 31.782031 -9.974699 -1.50372 -15.249959 -8.156926 -18.024125 -6.793431 -5.81682 -2.447611 36.994917 3.984553 18.819131 0.784772 1.325914 -28.420592 -11.527867 3.077808 0.397654 4.320059 0.348525 -2.568952 6.541111 -4.874893 -3.262092 14.532513 0.072448 5.808106 -8.663842 9.075245 4.530311 -2.409546 21.327369 -11.431554 -17.121502 -59.78835 -30.018373 -13.790949 -33.281927 10.49381 -19.481128 -48.913915 63.996192 -60.802686 73.088772 12.98743 -25.963057 70.731353 7.490447 0.468311 39.280601 3.528646 -24.688499 50.132969 -3.181 -16.314261 -55.543909
0.133121 1.156831 0.443571 -10.592207 -2.716248 -99.94257 25.953854 -19.001469 37.544295 0.898495 30.567821 -4.020205 -6.136458 28.719855 -8.484605 2.610761 -16.201028 -9.968206 -19.434822 -6.863314 -3.704208 -2.14484 35.326583 5.27728 22.23968 -2.36095 6.809007 -28.580903 -13.891115 4.160107 0.049863 5.258233 -1.017857 -4.078601 8.955147 -7.482089 -3.077037 18.068701 -3.227457 2.192049 -3.351248 16.011183 2.543474 -3.280337 26.49287 -14.132419 -13.446699 -63.468898 -33.924486 -12.332599 -27.048453 6.172155 -5.920414 -44.514609 76.825412 -70.975078 90.430315 13.766892 -24.737001 67.433755 18.731891 5.854554 34.967922 3.137465 -19.615863 51.137151 -11.466136 -16.233727 -61.613121
0.133688 1.130876 0.488887 -7.555949 2.251015 -112.695115 32.707354 -18.783936 44.566458 1.02785 32.929359 -4.263474 -7.2683 23.526384 -6.249279 7.22645 -17.205361 -11.596202 -19.919242 -9.510829 -4.732376 -1.446948 33.658596 3.894577 25.378038 -1.921807 8.369864 -27.50724 -14.702594 4.890745 -0.979126 5.598412 -2.998596 -5.925576 11.065917 -10.628324 -3.138116 19.53947 -7.811871 1.415487 -0.168577 23.022896 1.925306 -2.859031 30.574935 -15.283791 -9.297252 -67.308411 -38.600807 -12.31843 -23.631182 5.046535 10.092672 -40.24718 103.030764 -70.22618 127.833357 13.178923 -23.513695 61.821498 28.57361 7.912567 31.208568 0.776486 -10.298622 48.222412 -26.282951 -21.090495 -77.984484
0.127095 1.121098 0.53045 -2.577778 4.325874 -121.251062 38.742928 -20.359202 53.694921 1.589463 37.326363 -3.259206 -7.498096 18.704924 -4.424805 11.574263 -17.901488 -12.46471 -19.616952 -13.633739 -7.130923 -0.692375 31.052378 1.703025 26.847746 1.138966 7.32261 -26.387996 -14.687866 5.103867 -2.152532 5.607681 -4.580545 -7.195085 12.923238 -13.120794 -3.067779 20.133406 -11.645395 2.456702 2.892696 28.188709 0.426855 -2.684664 33.049223 -14.938954 -6.911729 -70.938039 -43.037686 -11.505808 -22.531821 5.337495 24.109633 -34.756752 118.217693 -62.552563 155.556422 12.942235 -21.95377 57.004842 36.550749 8.190268 26.811189 -1.402848 -2.967915 47.08122 -41.152875 -23.854668 -96.155902
0.124646 1.120144 0.5592 2.128604 4.139582 -127.926945 43.207049 -22.062467 61.285512 2.107807 41.410272 -1.513009 -7.630534 14.610201 -2.300446 15.134878 -18.350401 -12.765234 -18.808235 -18.660699 -8.847633 -0.414208 28.790803 0.326327 26.073913 4.544488 5.41421 -25.90598 -14.138557 4.862733 -3.007983 5.60353 -5.474989 -8.082254 14.372549 -14.330183 -3.031918 20.43751 -13.861844 3.689119 6.115957 31.036723 -2.523523 -3.431161 34.20078 -13.984361 -5.932541 -73.178656 -46.677095 -10.051138 -22.72558 5.238107 32.201677 -28.741095 123.040092 -55.673286 169.519513 13.183629 -20.10997 53.869377 41.672265 7.850989 23.281523 -3.03075 0.568876 48.516037 -51.599845 -22.771905 -109.116481
0.127339 1.120244 0.57685 5.685474 3.040838 -134.008897 46.439642 -22.971065 66.050391 2.253853 44.681285 0.44297 -8.208865 10.463077 0.890545 17.738074 -18.838125 -12.870824 -17.599677 -23.700149 -9.231997 -0.483987 27.8897 -0.203991 23.507103 7.062706 3.90601 -26.107691 -13.413731 4.386975 -3.412324 5.651947 -5.849545 -8.838542 15.155761 -14.499106 -3.124561 20.392048 -14.797487 4.540996 8.754698 32.308963 -5.785549 -4.54517 34.66805 -13.506961 -5.075789 -73.616725 -49.321826 -8.421105 -22.872066 4.729903 34.916775 -24.601975 122.069159 -51.62001 173.846972 13.680206 -18.326896 51.421519 44.511328 7.457986 21.040419 -3.911942 2.686581 51.598623 -58.638399 -20.334687 -117.153962
0.130521 1.11697 0.585996 7.954811 1.819115 -139.501203 48.875534 -23.187288 68.519747 2.261416 47.083134 1.857146 -9.275775 6.778356 5.022889 19.719149 -19.319378 -12.890188 -16.37214 -27.996914 -8.925801 -0.551891 28.139583 -0.348392 20.715682 8.875542 3.76246 -26.527807 -12.839808 3.892746 -3.45579 5.669743 -5.88665 -9.396722 15.316078 -14.121722 -3.237092 19.994629 -14.992745 5.070868 10.530593 32.597378 -8.656972 -5.604074 34.672847 -13.573352 -4.111331 -72.856645 -51.451699 -6.94248 -22.581521 4.684812 34.962626 -23.889236 117.408904 -49.482954 171.203466 14.248714 -16.859433 48.978837 46.120471 6.804429 19.022078 -4.098749 4.6995 55.899903 -63.652644 -18.595596 -121.733713
0.134204 1.110005 0.588829 9.085378 0.745788 -143.95939 50.467105 -22.98844 69.508093 2.280162 48.588452 2.713276 -10.185314 4.184479 8.891806 21.069767 -19.683291 -12.862458 -15.615762 -31.171821 -8.543685 -0.576225 28.930254 -0.153028 19.094124 10.145286 4.882878 -26.76003 -12.387766 3.611865 -3.313831 5.626092 -5.752788 -9.741168 15.158679 -13.587593 -3.299962 19.381923 -14.890297 5.458034 11.526982 32.34633 -11.039816 -6.289039 34.49944 -13.822639 -3.200316 -71.525446 -53.581294 -6.010659 -22.024435 5.168266 34.048857 -25.486508 111.483926 -47.866437 164.976668 14.501168 -15.690968 46.587693 46.971368 5.694247 17.067148 -3.710717 6.927745 60.458982 -66.959801 -18.29796 -124.181162
0.139431 1.103989 0.58857 9.408944 -0.031224 -147.147988 51.28701 -22.534729 69.667903 2.273678 49.407585 3.245413 -10.636474 2.638446 11.573139 21.68104 -19.980493 -12.824947 -15.466234 -33.166729 -8.125866 -0.557325 29.848058 0.320912 18.941284 10.851485 6.469085 -26.796358 -12.026418 3.662167 -3.128903 5.60868 -5.578946 -9.865792 14.958758 -13.185962 -3.270803 18.789513 -14.731619 5.862643 11.906339 31.81315 -12.9569 -6.563984 34.446453 -14.013465 -2.510215 -70.044092 -55.880093 -5.5455 -21.589714 5.780054 32.496912 -27.192625 106.121366 -46.529351 157.977965 14.282853 -14.779609 44.52911 47.153757 4.422909 15.682696 -2.920662 9.11556 64.091319 -68.383417 -19.588522 -125.147339
0.145204 1.100016 0.585594 9.265425 -0.517675 -149.318843 51.568274 -21.921005 69.484659 2.273991 49.723981 3.480986 -10.886724 1.798357 13.232017 21.733139 -20.24344 -12.834927 -15.637762 -34.329748 -7.5236 -0.398749 30.71482 0.703551 19.433045 11.107128 7.864808 -26.82031 -11.752597 3.930421 -2.965502 5.644853 -5.418949 -9.789433 14.803295 -13.012014 -3.162558 18.341461 -14.565699 6.283963 11.863518 31.154888 -14.408962 -6.633046 34.602914 -14.089998 -2.082933 -68.661073 -58.265085 -5.166163 -21.374515 6.237263 30.154746 -28.020778 101.635415 -45.561407 150.656714 13.771451 -14.068344 42.960343 46.692986 3.26668 14.974937 -1.83641 10.996102 66.483168 -68.481382 -22.274091 -125.05925
0.151802 1.097596 0.580802 8.888452 -0.925008 -150.860618 51.390968 -21.248614 69.130733 2.144505 49.42305 3.581522 -10.969251 1.485953 14.599607 21.580394 -20.443586 -12.858546 -15.883423 -35.137053 -6.922787 -0.131986 31.485977 0.842249 19.854893 11.052995 8.95492 -26.903946 -11.468529 4.213827 -2.822709 5.645007 -5.284356 -9.576394 14.640496 -12.989948 -3.025029 18.00592 -14.349196 6.577022 11.579818 30.513905 -15.338813 -6.608134 34.917777 -14.078751 -1.89913 -67.272729 -60.706797 -4.719636 -21.387244 6.463869 27.171436 -28.110503 98.081802 -44.231346 142.762224 13.157598 -13.54687 41.944126 45.600996 2.31402 14.662529 -0.546931 12.620973 67.979739 -67.895617 -26.362602 -124.123839
0.158868 1.096173 0.574864 8.398045 -1.387642 -151.897968 50.770594 -20.550615 68.603307 1.779172 48.439303 3.7551 -10.872358 1.653173 15.887868 21.400912 -20.58665 -12.851807 -16.163872 -35.780354 -6.807862 0.06431 32.224887 0.985392 20.05749 10.722842 9.919357 -27.015835 -11.083915 4.428021 -2.678703 5.577743 -5.174593 -9.255402 14.430073 -13.056964 -2.857383 17.71681 -14.066384 6.63042 11.137378 29.952834 -15.698088 -6.483071 35.320695 -13.932448 -1.922327 -65.674062 -63.278152 -4.258932 -21.824624 6.475749 24.035262 -27.842856 95.944825 -41.901367 134.571779 12.557666 -13.287197 41.428483 43.986111 1.62755 14.408243 0.782331 14.038302 68.845917 -66.650897 -31.718545 -122.462787
0.166274 1.09585 0.566637 7.8858 -1.804607 -152.393946 49.981901 -19.828749 68.057459 1.460041 47.074488 3.938213 -10.979133 2.174481 16.580261 21.046557 -20.728213 -12.869928 -16.475014 -36.221071 -7.29654 0.109 32.970484 1.182005 20.021728 10.154801 10.864827 -27.10931 -10.627467 4.608491 -2.515967 5.514025 -5.07192 -8.816119 14.201472 -13.1687 -2.620755 17.438371 -13.750542 6.512814 10.570076 29.424051 -15.666827 -6.282732 35.725562 -13.622062 -2.058708 -64.060123 -65.801493 -3.815044 -22.646383 6.281527 20.91706 -27.530159 95.220168 -38.879449 126.208559 12.006962 -13.263637 41.188914 42.078532 1.032979 14.044852 2.036157 15.331646 69.472275 -64.606836 -37.527813 -120.034011
0.174006 1.096467 0.557804 7.389335 -2.084251 -152.405431 49.26925 -19.028348 67.702522 1.386379 45.569695 3.893717 -11.496729 3.004326 16.51238 20.417775 -20.881173 -12.944294 -16.792928 -36.390824 -8.028448 0.194104 33.634946 1.121487 19.758621 9.456148 11.791827 -27.202422 -10.16031 4.783732 -2.335766 5.48192 -4.984569 -8.288955 13.981637 -13.282565 -2.314615 17.165532 -13.441991 6.378292 9.953359 28.90839 -15.454116 -6.03526 36.090517 -13.238674 -2.212023 -62.715847 -67.978297 -3.374279 -23.628335 5.889499 17.978029 -27.390618 95.929668 -36.023718 117.415691 11.487078 -13.379 41.031538 40.080875 0.279528 13.522153 3.250674 16.713688 70.224213 -61.355868 -43.278152 -115.931913
0.1801 1.097753 0.548921 6.900653 -2.228296 -152.077636 48.665491 -18.07178 67.684982 1.5574 43.92666 3.368841 -12.349207 4.216132 15.853306 19.582445 -21.042633 -13.044868 -17.069901 -36.279493 -8.736431 0.401923 34.167827 0.761341 19.325291 8.68943 12.680782 -27.264507 -9.704598 4.942302 -2.14671 5.482952 -4.92878 -7.742059 13.765213 -13.388694 -1.984122 16.908873 -13.152665 6.273985 9.30238 28.435081 -15.086475 -5.718989 36.432994 -12.798449 -2.36536 -61.503393 -69.83745 -2.87306 -24.698958 5.489419 15.554126 -27.563457 97.786686 -34.275963 107.338808 10.939295 -13.574376 40.836627 38.122354 -0.767211 12.87784 4.525634 18.393604 71.290485 -56.127504 -48.687864 -108.961069
0.184751 1.099433 0.541147 6.41374 -2.25484 -151.611446 48.156442 -16.977999 67.968321 1.880282 42.25704 2.389828 -13.369166 5.675746 14.71727 18.574839 -21.209925 -13.113154 -17.260497 -35.902248 -9.304907 0.659669 34.554353 0.345449 18.820127 7.837437 13.440965 -27.273591 -9.302459 5.045387 -1.967126 5.512032 -4.903282 -7.249169 13.541463 -13.469793 -1.692445 16.660509 -12.850956 6.127139 8.58929 28.067845 -14.477797 -5.315471 36.788849 -12.338322 -2.49743 -60.229692 -71.350416 -2.369051 -25.827716 5.194095 13.807623 -28.083565 100.483871 -34.37343 96.398481 10.358746 -13.771812 40.561277 36.456968 -1.952766 12.245701 5.714709 20.047213 72.57157 -46.881696 -52.953292 -96.731108
0.187662 1.10125 0.535406 5.961115 -2.105556 -151.225249 47.841193 -15.886633 68.260364 2.22122 40.941512 1.469789 -14.280828 6.813336 13.280559 17.364208 -21.386577 -13.134549 -17.315831 -35.325348 -9.609053 0.932406 34.821297 0.087167 18.385648 6.882515 13.885883 -27.30247 -9.015268 5.096437 -1.808987 5.58067 -4.920925 -6.85444 13.315446 -13.506597 -1.48627 16.363718 -12.508971 5.835489 7.830411 27.958818 -13.61652 -4.863872 37.254896 -12.072149 -2.506868 -58.963608 -72.132996 -2.014868 -26.932968 4.87127 12.507595 -28.767632 104.117661 -36.996286 86.308373 9.82436 -13.873847 40.3423 35.410355 -2.939171 11.85374 6.471168 20.671206 73.51659 -31.029898 -53.854202 -76.507656
0.189007 1.102353 0.531964 5.579516 -1.687172 -151.021812 47.844746 -15.003507 68.241438 2.538347 40.403805 1.277278 -14.755175 7.096621 11.79341 15.89971 -21.585646 -13.11084 -17.184482 -34.577963 -9.51275 1.194849 35.036447 0.022888 18.185343 5.816908 13.88555 -27.407182 -8.865016 5.158768 -1.666705 5.722412 -4.981557 -6.554032 13.085746 -13.484869 -1.365377 15.990289 -12.130475 5.373553 7.014595 28.275392 -12.642755 -4.450136 37.887853 -12.185567 -2.357131 -58.017807 -71.714483 -1.916597 -27.970489 4.38869 11.562656 -29.361347 108.422081 -42.12374 77.644731 9.502721 -13.897992 40.48982 34.958893 -3.569455 11.7236 6.821567 19.52154 73.840351 -14.388556 -49.037652 -54.219958
0.188042 1.102524 0.531671 5.27686 -0.989747 -150.919422 48.178468 -14.49782 67.765171 2.873536 40.830858 2.169183 -14.562945 6.486356 10.436783 14.211309 -21.778204 -13.020119 -16.901969 -33.559768 -9.020927 1.373308 35.17254 0.037924 18.34264 4.636008 13.477634 -27.630955 -8.803393 5.283775 -1.528621 5.923804 -5.037277 -6.287242 12.838631 -13.381207 -1.263719 15.579688 -11.742605 4.781654 6.169417 28.984462 -11.766984 -4.177031 38.580157 -12.591978 -2.200108 -57.619709 -70.161341 -2.119564 -28.928574 3.864828 10.964341 -29.865997 112.459147 -48.32493 70.156674 9.543828 -13.950476 41.124507 34.734108 -3.920709 11.618249 6.920213 16.738554 74.061279 -4.794228 -40.988647 -38.840769
0.183633 1.10169 0.533346 5.079296 -0.135922 -150.690489 48.797561 -14.391415 67.056069 3.190673 42.169533 3.824875 -13.645519 5.191779 9.280616 12.600732 -21.937933 -12.817769 -16.649871 -32.225169 -8.398745 1.45113 35.127536 0.060453 18.854613 3.440905 12.781717 -28.063059 -8.766779 5.439214 -1.407588 6.120921 -5.029196 -5.988425 12.565826 -13.181993 -1.109022 15.173663 -11.366246 4.140188 5.35829 29.818556 -11.156397 -4.09837 39.15334 -12.995145 -2.215342 -57.545146 -68.226538 -2.492338 -29.896371 3.5547 10.579161 -30.439032 115.539643 -53.932878 63.998979 9.857006 -14.095433 41.88792 34.511852 -4.172725 11.471091 6.666517 13.067283 74.714437 -0.448101 -33.412914 -29.79532
0.17608 1.100574 0.536415 5.007836 0.711231 -150.142806 49.613383 -14.571683 66.662585 3.389073 44.072603 5.425436 -12.018757 3.552218 8.409778 11.444041 -22.080377 -12.42688 -16.599559 -30.621722 -7.986394 1.424802 34.841222 0.192258 19.614697 2.334928 11.931256 -28.73576 -8.735865 5.547756 -1.314602 6.271714 -4.927337 -5.671942 12.263703 -12.87353 -0.895943 14.795178 -10.982126 3.544068 4.568829 30.59233 -10.769848 -4.198977 39.432239 -13.274271 -2.473896 -57.559282 -66.363121 -2.845481 -30.873649 3.492217 10.215629 -31.157236 118.000653 -58.520436 59.405407 10.307151 -14.390273 42.48841 34.148451 -4.426549 11.293418 6.264519 9.244713 75.826462 1.457551 -27.30529 -24.071529
0.164867 1.099644 0.54211 5.064535 1.430868 -149.174585 50.426437 -14.914403 66.957347 3.439479 46.011396 6.507483 -9.785184 1.993892 7.910441 10.891358 -22.15825 -11.845293 -16.809628 -28.829845 -7.943552 1.283671 34.218574 0.518453 20.503637 1.357468 10.953684 -29.580201 -8.730865 5.565884 -1.234345 6.357109 -4.725482 -5.35905 11.888827 -12.455917 -0.654966 14.433722 -10.544945 3.039926 3.77637 31.215795 -10.503375 -4.40878 39.323259 -13.483224 -2.95316 -57.560663 -64.635102 -3.097624 -31.75288 3.646555 9.797772 -32.084775 120.24605 -62.306943 56.594418 10.851003 -14.839102 42.945966 33.596052 -4.637231 11.011485 5.987482 5.572073 77.217876 1.84952 -22.736962 -20.15544
0.150288 1.099154 0.549281 5.270479 1.933675 -147.786445 50.980044 -15.341832 67.994731 3.45598 47.484705 7.026887 -7.27541 1.006593 7.864719 10.841913 -22.055355 -11.112694 -17.214319 -26.876557 -8.161221 1.044616 33.083737 0.950238 21.418366 0.547535 9.739435 -30.455665 -8.753526 5.47368 -1.151301 6.304105 -4.378591 -5.031759 11.369836 -11.904366 -0.39925 14.035836 -9.995487 2.597228 3.001025 31.553297 -10.306317 -4.673146 38.772653 -13.676287 -3.601932 -57.508415 -62.95043 -3.236195 -32.446432 4.002605 9.24753 -33.357919 122.314959 -65.41429 55.506469 11.508441 -15.382819 43.382852 32.974443 -4.672949 10.571749 5.839984 1.858 78.83412 1.24654 -19.595396 -17.52378
0.132956 1.099251 0.559465 5.655563 2.191415 -146.05229 51.084723 -15.896153 69.517294 3.669763 48.180458 6.945561 -5.119978 0.912747 8.169527 10.993534 -21.698843 -10.283208 -17.692294 -24.760275 -8.438652 0.725229 31.310839 1.313162 22.201017 -0.048141 8.222078 -31.203188 -8.825892 5.258033 -1.045199 6.070324 -3.838144 -4.678057 10.667714 -11.169464 -0.121358 13.555552 -9.27381 2.144227 2.286498 31.50063 -10.122025 -4.965479 37.769031 -13.875423 -4.360007 -57.422254 -61.214225 -3.306191 -32.928849 4.449372 8.542802 -35.0444 123.917916 -67.880356 55.598915 12.341982 -15.954593 43.886367 32.433519 -4.419302 10.031186 5.777909 -2.106639 80.757253 -0.052686 -17.548277 -15.923861
0.112234 1.100121 0.572817 6.117927 2.342936 -143.933107 50.713382 -16.66362 70.783645 4.005874 48.314371 6.500616 -3.926344 1.256237 8.36209 10.936356 -21.138017 -9.512526 -18.188478 -22.44219 -8.629283 0.336465 29.08007 1.466243 22.502607 -0.346778 6.25685 -31.843354 -9.005414 4.963244 -0.910631 5.713739 -3.144382 -4.29405 9.852201 -10.300265 0.172878 13.017989 -8.393358 1.68519 1.673819 30.968073 -9.874892 -5.198422 36.478361 -14.032158 -5.102997 -57.221301 -59.538283 -3.404102 -33.261368 4.880871 7.936673 -37.107791 123.61533 -69.834861 55.107466 13.372786 -16.422551 44.431441 32.144453 -3.955741 9.551328 5.784453 -6.106624 82.829633 -1.878123 -16.091925 -14.541021
0.087891 1.101977 0.589876 6.440405 2.537946 -141.209586 49.976175 -17.65053 70.982203 3.944315 48.55055 6.128694 -3.834082 1.105928 8.076632 10.482278 -20.581528 -8.919953 -18.741949 -19.956161 -8.584109 -0.162426 26.998572 1.491952 21.988796 -0.261686 3.33024 -32.568868 -9.326769 4.652831 -0.775934 5.306313 -2.387625 -3.895708 9.074957 -9.405429 0.453522 12.516551 -7.428797 1.288493 1.151897 29.812768 -9.430343 -5.290695 35.104695 -14.077303 -5.743586 -56.817151 -58.03254 -3.571601 -33.460136 5.350087 7.702894 -39.507134 119.070715 -71.285717 51.328257 14.638588 -16.640058 44.94127 32.304475 -3.438749 9.255139 5.741479 -9.888756 84.632031 -3.907902 -14.912428 -12.06461
0.058359 1.104837 0.61114 6.393943 2.809528 -137.648105 48.754251 -18.827625 69.817216 3.234324 49.365017 6.115493 -4.567405 0.103266 7.031897 9.827203 -20.276705 -8.503307 -19.341995 -17.705353 -8.134273 -0.932407 26.302883 1.511686 20.401507 0.698854 -1.280839 -33.486411 -9.750637 4.330193 -0.666116 4.889804 -1.623207 -3.53893 8.523153 -8.527224 0.664615 12.129563 -6.410065 0.927856 0.649156 27.902748 -8.573325 -5.311333 33.729973 -13.958052 -6.33981 -56.181564 -56.484756 -3.676534 -33.589253 5.897749 7.740154 -42.064695 109.618682 -72.011369 42.967196 16.272638 -16.518929 45.427701 32.976347 -2.989414 9.193773 5.479773 -13.411155 86.023841 -5.787039 -14.234104 -7.905205
0.024844 1.107998 0.634775 5.844875 3.185026 -133.15589 46.620975 -20.033085 67.513121 2.233823 50.500492 6.400544 -5.666478 -1.307953 5.120046 9.45173 -20.340411 -8.213853 -19.680413 -16.437301 -6.980534 -2.138536 28.489984 1.434413 17.568378 3.81183 -7.844443 -34.472199 -10.002382 3.951599 -0.525422 4.505638 -0.875399 -3.262339 8.353229 -7.625318 0.793652 11.825757 -5.295633 0.492679 0.124256 25.249324 -7.222914 -5.426082 32.2768 -13.64033 -6.989937 -55.264186 -54.517271 -3.501112 -33.929365 6.409863 7.760029 -44.354462 96.513265 -71.741666 30.566964 18.402245 -16.016715 45.99764 33.927437 -2.717765 9.405794 4.958627 -16.611335 87.16394 -7.143811 -14.633156 -2.228886
-0.010813 1.111431 0.658857 4.923811 3.674897 -127.702603 43.526132 -21.126747 64.366303 1.388586 51.496982 6.562154 -6.812396 -2.702348 2.650619 9.614912 -20.761965 -8.09274 -19.280723 -16.614756 -5.213523 -3.554772 34.036604 1.173337 14.223574 9.902637 -14.532016 -35.063565 -9.652187 3.672765 -0.245802 4.19778 -0.2149 -2.98926 8.553902 -6.696659 0.964513 11.48926 -4.098683 -0.148675 -0.398271 22.012221 -5.486146 -5.71458 30.55498 -13.129351 -7.725346 -54.069794 -51.942145 -3.105795 -34.838701 6.802309 7.666775 -45.944181 80.981658 -69.925733 15.272589 20.992163 -15.190842 46.810461 34.717021 -2.605804 10.014185 4.260558 -19.54486 87.910931 -7.519263 -16.799663 4.890666
-0.046351 1.115101 0.679748 3.727537 4.221919 -121.317489 39.668054 -22.037522 60.322506 0.784118 52.165777 6.379759 -7.699666 -4.074631 0.151873 10.068014 -21.455118 -8.30056 -18.083263 -18.112317 -3.920341 -4.589716 42.202211 0.964067 11.893493 16.806206 -17.012951 -34.504134 -8.638185 4.046481 0.212907 4.047599 0.289282 -2.643102 8.971474 -5.766929 1.298402 11.087837 -2.86179 -1.078664 -0.901239 18.256085 -3.546102 -6.108147 28.445394 -12.475676 -8.575439 -52.839486 -48.650311 -2.871715 -36.517415 6.903103 7.353306 -46.528775 64.782022 -65.734873 -1.101694 23.792373 -14.172605 48.064462 34.883065 -2.413548 11.324454 3.460009 -22.700376 87.480785 -5.895288 -21.348363 14.163693
-0.080747 1.119172 0.696936 2.232528 4.648859 -114.226468 35.085791 -22.600105 55.179198 0.274985 52.37795 6.044969 -8.155566 -5.490741 -2.015594 10.525486 -22.233097 -8.801785 -16.399087 -20.590001 -4.086242 -4.845329 51.391446 1.155435 10.834311 20.400142 -13.465071 -32.480026 -7.355602 5.317185 0.784507 4.069448 0.637691 -2.238487 9.43486 -4.861369 1.784307 10.709503 -1.601629 -2.212301 -1.36925 14.028436 -1.66069 -6.502715 25.962199 -11.694476 -9.596704 -51.767059 -44.699663 -3.141854 -38.933768 6.51619 6.725599 -45.912753 50.590829 -58.449067 -16.004215 26.483132 -13.121079 49.86416 34.187292 -1.858603 13.459515 2.476951 -26.551497 85.023875 -0.219306 -28.191031 27.338206
-0.114107 1.123713 0.710942 0.611869 4.746827 -106.85388 29.982349 -22.593062 49.184768 -0.317813 52.054807 5.916647 -8.336243 -6.879861 -3.930368 11.064392 -22.914561 -9.249617 -14.523308 -23.769264 -5.784306 -4.337147 59.29539 1.450592 10.206984 19.152778 -7.96846 -29.752326 -6.15754 6.801041 1.36887 4.131788 0.893491 -1.826098 9.801283 -3.985147 2.329315 10.421319 -0.333164 -3.294305 -1.75354 9.65011 -0.052552 -6.856936 23.091644 -10.72436 -10.813176 -50.749778 -40.604355 -3.930428 -41.815362 5.715181 5.958896 -44.10475 40.900119 -48.810384 -26.873317 28.850697 -12.189967 52.008193 32.757236 -0.952699 15.792186 1.298325 -30.822881 81.1448 11.116055 -34.863428 45.121719
-0.147318 1.128576 0.723943 -0.773517 4.528477 -99.372385 24.917256 -22.000787 43.019267 -0.968267 51.251558 5.955203 -8.358117 -8.141711 -5.762723 11.596522 -23.408066 -9.488939 -12.920785 -27.339483 -8.92539 -3.21192 63.647501 1.109362 9.627501 14.829166 -4.065485 -27.196553 -5.222686 7.910919 1.896136 4.121679 1.11575 -1.337214 9.896284 -3.171284 2.871422 10.220722 0.902697 -4.180627 -2.054209 5.487047 1.227742 -7.113152 19.824273 -9.577125 -12.181525 -49.805115 -37.079473 -4.878147 -44.777582 4.822282 5.321994 -41.470793 35.595357 -39.649712 -33.253433 30.755677 -11.454404 54.148785 30.862304 0.169774 17.297778 0.335815 -35.005112 77.874596 25.490127 -38.021605 63.481881
-0.18234 1.133335 0.736279 -1.72978 4.108042 -91.601834 20.334373 -21.034121 37.195718 -1.425948 50.084683 5.791275 -8.195404 -9.237995 -7.566643 11.672291 -23.611713 -9.68738 -12.134698 -30.910426 -13.258964 -1.782521 63.134571 -0.268155 8.874256 9.508329 -1.38228 -24.992891 -4.614793 8.700566 2.328924 4.03904 1.328148 -0.668289 9.608365 -2.478387 3.367609 10.101612 2.054561 -4.932649 -2.333656 1.539103 2.33104 -7.173795 16.256655 -8.380925 -13.552833 -49.061558 -34.412955 -5.562265 -47.680198 4.083919 4.943206 -38.496196 32.891538 -32.946539 -36.260271 32.104064 -10.874693 56.012092 28.829973 1.45857 17.482278 -0.20459 -38.973445 76.575392 38.393521 -38.119952 77.350875
-0.219318 1.137395 0.748945 -2.302747 3.478394 -83.40961 16.356338 -19.836452 31.837753 -1.651452 48.732098 5.364808 -7.909342 -10.113331 -9.421729 11.054978 -23.476576 -9.906002 -12.386963 -34.05722 -18.195991 -0.950331 57.535258 -1.723454 7.837234 3.799551 0.445279 -23.057179 -4.252993 9.243316 2.636437 3.911792 1.533443 0.122532 8.995886 -1.916428 3.763103 10.037433 3.075968 -5.620748 -2.619141 -2.340116 3.41861 -6.958823 12.491079 -7.341056 -14.692985 -48.507887 -32.40585 -5.824807 -50.579874 3.567341 4.935513 -35.587324 31.494656 -28.594188 -37.214785 32.880198 -10.386049 57.326402 27.125823 2.819554 16.563962 -0.56866 -42.510016 77.374131 47.420299 -37.878569 84.853091
-0.257464 1.14087 0.760019 -2.613319 2.564426 -74.725255 12.97597 -18.413792 26.777087 -1.831575 47.374846 4.887772 -7.635647 -10.723896 -11.38715 9.915732 -23.110595 -10.013658 -13.504085 -36.146141 -22.6294 -0.901534 47.476837 -2.343068 6.732004 -1.688027 1.315782 -21.309968 -3.906802 9.449589 2.784975 3.760258 1.674933 0.922399 8.162289 -1.556875 4.035381 9.986364 3.814219 -6.088155 -2.770553 -6.124756 4.418045 -6.496629 8.643892 -6.709572 -15.4402 -48.208866 -30.850031 -5.725496 -53.122711 3.163567 5.200044 -33.206104 30.582745 -25.623987 -37.214104 33.132487 -9.991016 57.897594 26.177228 3.934638 15.054119 -0.865222 -44.977135 79.674219 52.005333 -39.356438 86.927948
-0.296423 1.143673 0.768418 -2.816006 1.246597 -65.32244 10.143232 -16.742018 21.680729 -1.932554 46.210727 4.357689 -7.520329 -11.042384 -13.380252 8.814971 -22.62488 -9.843846 -15.059334 -36.092931 -24.974962 -1.189428 33.966104 -1.668727 6.498076 -5.628628 2.438918 -19.498994 -3.516201 9.253549 2.7333 3.618162 1.626883 1.687531 7.130229 -1.629451 4.161108 10.033721 3.997292 -5.926793 -2.50137 -9.657457 5.011733 -5.997153 4.907158 -6.69231 -15.857931 -48.439096 -29.848092 -5.285385 -54.491844 2.758342 5.206841 -31.891176 29.210086 -23.248976 -36.974981 32.897345 -9.798848 57.785463 26.260641 4.576693 13.451405 -1.146004 -45.980116 82.254365 52.928833 -42.432641 86.093949
-0.336114 1.144813 0.775243 -2.995698 -0.605231 -54.978413 7.892391 -14.931767 16.306306 -1.842712 45.509547 3.64437 -7.601986 -11.04999 -14.879862 8.333766 -22.03409 -9.348051 -16.993072 -33.103789 -24.416226 -1.204231 19.167608 0.39879 7.727821 -6.436764 4.199653 -17.972063 -3.464321 8.625793 2.430715 3.489072 1.273829 2.4114 5.943759 -2.353491 4.096722 10.301286 3.422157 -4.911553 -1.605322 -12.860402 4.956912 -5.672084 1.52104 -7.403938 -16.144961 -49.287869 -29.708063 -4.435846 -54.198199 2.330433 4.832566 -32.1324 27.493614 -21.178584 -36.344401 32.193926 -9.901222 57.201175 27.493861 4.856579 11.980311 -1.562946 -45.838305 84.324665 50.005688 -46.309778 82.304792
-0.376282 1.142955 0.782274 -3.102077 -2.879461 -43.967203 6.497946 -13.560719 10.95797 -1.480277 45.820607 2.75006 -7.647191 -10.913654 -14.644145 8.02936 -21.26268 -8.810694 -20.106249 -28.225746 -23.182109 -0.799474 8.420192 2.552588 9.83389 -2.36804 5.580804 -18.284785 -4.427463 7.805445 1.839083 3.2854 0.594226 3.101562 4.824413 -3.651914 3.854906 10.667729 2.228275 -3.627238 -0.215804 -15.914904 4.703843 -5.413038 -1.261462 -8.55401 -16.393371 -50.186571 -30.726209 -3.29725 -52.899766 1.846543 4.850026 -33.742033 26.437635 -19.419591 -34.924347 31.011375 -10.202316 56.22453 29.674833 4.771389 10.669578 -2.135206 -45.109525 86.022296 42.087201 -50.136668 73.41728
-0.416114 1.138018 0.788909 -3.048923 -5.158102 -33.199029 6.143251 -13.363334 6.380494 -0.78828 47.475079 1.88335 -7.613021 -10.849852 -11.830015 6.874217 -20.251508 -8.54952 -24.314432 -23.609773 -25.015151 -0.692183 5.941206 3.748116 11.966238 6.444359 6.23822 -21.448978 -6.464796 7.048466 1.039697 2.967353 -0.29895 3.702955 4.09227 -5.108224 3.496631 10.832032 0.837445 -3.0014 1.283048 -18.824337 5.130933 -4.961445 -3.383764 -9.519916 -16.606 -50.452574 -32.556328 -2.18107 -51.629535 1.328851 5.929033 -35.823406 26.059825 -18.074578 -33.395113 29.487029 -10.449532 54.91679 32.272088 4.152946 9.533825 -2.720665 -44.080571 87.678453 30.721311 -52.187363 60.943476
-0.454884 1.130939 0.795762 -2.853046 -7.031974 -23.644306 6.71108 -14.340539 2.773106 -0.185319 49.885562 1.609494 -8.011984 -10.860229 -7.621464 5.212758 -19.35033 -8.546788 -28.343445 -19.982083 -30.548757 -1.175977 9.849626 4.522291 13.488606 16.055031 6.978438 -25.851855 -8.396477 6.40501 0.31133 2.713956 -1.222218 4.083851 3.764335 -6.312754 3.06288 10.692524 -0.428342 -3.114101 2.613077 -21.18991 6.342998 -4.430012 -5.022937 -10.165631 -16.809195 -50.209461 -34.147107 -1.240369 -50.237206 0.77176 7.897618 -37.985573 26.047547 -17.173165 -32.583136 27.950889 -10.534731 53.615914 34.890268 3.173826 8.534648 -3.390063 -42.943656 88.827017 21.174743 -51.741623 51.149259
-0.491282 1.123533 0.801603 -2.729647 -8.285339 -15.893648 8.060124 -15.843113 -0.301221 -0.417031 51.931294 2.549159 -8.983759 -11.003376 -4.112958 4.080068 -19.190876 -8.957065 -31.611972 -17.745257 -37.234431 -2.061479 17.54558 4.950998 14.117866 21.389909 8.597459 -28.993395 -9.726377 6.252825 -0.057644 2.764787 -2.046837 4.267348 3.609071 -7.150713 2.653416 10.371526 -1.408636 -3.667206 3.667438 -22.883383 7.959841 -4.081955 -6.143693 -10.766962 -16.977411 -49.762236 -35.040892 -0.420744 -48.231937 0.283721 10.21507 -40.420651 26.668007 -16.503842 -32.331107 26.498387 -10.551424 52.697427 37.40894 2.211509 7.616917 -4.148268 -41.796247 88.977881 15.324521 -49.867301 46.314593
-0.524878 1.117798 0.806837 -2.710689 -8.964623 -9.796804 9.778247 -17.255739 -3.049636 -1.291537 52.663494 4.096029 -10.243199 -11.386125 -2.215999 3.987139 -19.432098 -9.820564 -34.280109 -16.766201 -42.544836 -2.912477 26.936064 4.218676 14.460882 20.817309 10.490376 -30.036104 -11.317453 6.583549 -0.058403 3.099458 -2.756801 4.358644 3.457018 -7.777068 2.341688 10.066621 -2.145844 -4.452928 4.363779 -24.053958 9.681465 -4.002381 -6.794382 -11.509149 -17.059013 -49.054711 -35.735982 0.436208 -45.70619 0.099018 12.318717 -43.147323 27.736726 -15.895918 -32.122589 25.096809 -10.649231 52.176921 39.729078 1.500665 6.759349 -4.861261 -40.363042 88.348887 11.196609 -47.548924 44.0506
-0.55623 1.114766 0.811571 -2.56233 -9.181822 -4.678088 11.340173 -18.421367 -5.276459 -1.72255 51.919703 4.70638 -11.710701 -11.826263 -1.67734 4.777486 -19.262257 -10.681382 -36.234031 -15.898953 -46.125233 -3.135006 34.806639 2.781102 14.926427 17.426017 11.478057 -30.11403 -13.170174 6.827472 0.093489 3.449287 -3.361031 4.39125 3.274382 -8.378544 2.090837 9.919788 -2.861891 -5.167925 4.636265 -24.804643 11.17474 -4.172619 -7.314472 -12.348829 -17.052608 -48.021922 -36.932515 1.29202 -42.995881 0.246033 13.933962 -45.891106 28.431189 -15.508178 -31.739869 23.813997 -10.90136 51.61139 41.720512 1.118045 6.095767 -5.583071 -38.242034 87.267303 7.296549 -45.544196 42.321851
-0.585445 1.113764 0.814965 -2.220201 -9.033695 -0.160556 12.671069 -19.452396 -6.851428 -1.51025 50.11823 4.055099 -13.258751 -11.788418 -1.789078 5.962996 -18.766772 -11.241989 -37.434323 -14.800538 -48.875924 -2.997939 40.180066 1.523734 15.243538 14.045255 11.621749 -30.053654 -14.81306 6.684276 0.283056 3.695144 -3.863673 4.360707 3.127257 -8.92327 1.878959 9.92137 -3.669578 -5.519719 4.488112 -25.22473 12.127225 -4.563042 -7.911781 -13.07914 -16.908591 -46.731736 -38.666484 2.009968 -40.405048 0.511263 15.011146 -48.35237 28.514395 -15.392615 -31.360076 22.711283 -11.297891 50.537398 43.49659 1.071622 5.935727 -6.22714 -35.455468 86.041405 3.528988 -43.780204 40.908652
-0.613053 1.114149 0.81909 -1.808341 -8.663922 3.773676 14.036867 -20.366378 -7.687724 -1.186959 47.638897 2.62873 -14.645685 -10.873643 -1.929285 7.332604 -18.447615 -11.50754 -38.077652 -13.762399 -51.309607 -2.942794 43.899672 0.63339 15.306889 11.279976 11.506217 -29.959786 -16.142012 6.208113 0.520746 3.867959 -4.272764 4.282963 3.086046 -9.310283 1.742174 10.054333 -4.529133 -5.442516 3.978612 -25.414944 12.458542 -5.106278 -8.588161 -13.549524 -16.58426 -45.249587 -40.589368 2.62577 -38.124191 0.76816 15.446835 -50.376445 28.262921 -15.363947 -31.280552 21.737458 -11.818444 48.817725 45.317279 1.371218 6.492859 -6.637789 -32.352002 84.905208 0.034564 -41.936478 39.792431
-0.638488 1.115263 0.823396 -1.402274 -8.286511 7.154249 15.507024 -20.979236 -7.769405 -0.925109 44.732191 0.948405 -16.02272 -9.206193 -2.139855 8.833683 -18.30383 -11.567805 -38.347325 -12.701479 -53.388525 -2.835584 46.47064 -0.017567 15.319221 9.062959 11.232864 -29.927276 -17.329768 5.535607 0.771951 4.02823 -4.597078 4.211769 3.11096 -9.608055 1.674571 10.379115 -5.380156 -5.13015 3.293383 -25.494977 12.405967 -5.68151 -9.248391 -13.820163 -16.186163 -43.552429 -42.673202 3.171223 -35.986543 1.098935 15.412147 -52.093025 27.797855 -15.409972 -31.491171 20.83555 -12.448203 46.717161 47.151173 2.031625 7.538348 -6.862218 -29.036063 83.904093 -3.179809 -40.265597 38.317798
-0.661455 1.116927 0.828758 -1.026114 -8.014731 10.014992 16.895831 -21.154035 -7.34853 -0.551254 41.653046 -0.465014 -17.796415 -7.150476 -2.70639 10.348363 -18.061573 -11.537812 -38.339851 -11.560032 -55.155544 -2.722836 48.130008 -0.323182 15.410872 7.300257 10.759889 -29.951825 -18.53524 4.782907 0.993613 4.193693 -4.844413 4.203029 3.134317 -9.891046 1.645864 10.878833 -6.145605 -4.805275 2.655266 -25.576217 12.257665 -6.213215 -9.810569 -14.04336 -15.824429 -41.602675 -44.986304 3.666511 -33.792641 1.532321 15.107411 -53.636253 27.023351 -15.656887 -31.903184 20.026031 -13.134785 44.63732 48.741489 2.885346 8.654017 -6.932965 -25.347604 83.161119 -6.1643 -38.896174 35.78477
-0.681594 1.118614 0.835557 -0.687665 -7.809499 12.339111 18.014023 -20.980967 -6.925434 -0.125773 38.669585 -1.36128 -19.962405 -5.11006 -3.433152 11.773373 -17.652012 -11.457397 -38.15095 -10.484837 -56.728712 -2.785703 49.120049 -0.178699 15.56509 5.929252 10.195739 -29.958895 -19.724654 4.018282 1.179035 4.321509 -5.023619 4.279701 3.1402 -10.110123 1.632315 11.433574 -6.7472 -4.553008 2.222777 -25.722703 12.147685 -6.682921 -10.270737 -14.289195 -15.497766 -39.388882 -47.486679 4.203542 -31.612761 1.952346 14.54739 -54.921341 25.881891 -16.119484 -32.633991 19.288864 -13.812702 42.766721 49.95359 3.789015 9.701586 -6.910151 -21.31534 82.725916 -8.9049 -37.582617 32.347658
-0.697886 1.12039 0.84297 -0.408493 -7.644091 14.062651 18.814258 -20.581818 -6.851122 0.186882 36.033549 -1.715492 -22.202452 -3.423049 -3.993575 13.07257 -17.191791 -11.30091 -37.863645 -9.605345 -58.073399 -2.996385 49.607506 0.365432 15.741745 4.938495 9.619695 -29.951197 -20.797312 3.274809 1.336643 4.382909 -5.131873 4.430943 3.143248 -10.165408 1.615358 11.953742 -7.135026 -4.327589 2.071129 -25.925348 12.049219 -7.077019 -10.675334 -14.540759 -15.168504 -36.949822 -50.091488 4.80904 -29.544414 2.289118 13.782478 -55.89334 24.480322 -16.677314 -33.701667 18.57768 -14.459596 41.09036 50.783417 4.818548 10.824748 -6.909574 -17.198433 82.445102 -11.358754 -36.054114 28.839357
-0.710571 1.122398 0.850386 -0.244363 -7.532137 15.097887 19.421315 -20.022435 -7.034001 0.370565 33.880758 -1.669308 -24.232325 -2.212582 -4.286671 14.302288 -16.823926 -11.062011 -37.464228 -9.02684 -59.002393 -3.214515 49.674286 1.011976 15.926128 4.348118 9.109813 -29.908895 -21.686053 2.568116 1.49453 4.393276 -5.156341 4.628556 3.140526 -10.000481 1.603533 12.415918 -7.286926 -4.088277 2.17803 -26.113068 11.942685 -7.40668 -11.085298 -14.773781 -14.832109 -34.328852 -52.717848 5.435254 -27.618284 2.587824 12.930828 -56.623743 22.894527 -17.17205 -34.952931 17.86803 -15.096451 39.577277 51.24414 5.992979 12.161246 -6.909783 -13.179527 82.176603 -13.48822 -34.111497 25.822155
-0.719699 1.124682 0.856514 -0.230442 -7.471721 15.443268 19.961496 -19.346535 -7.206898 0.474257 32.212446 -1.442198 -25.913601 -1.422176 -4.361383 15.491273 -16.630808 -10.77243 -36.935084 -8.748316 -59.36839 -3.318037 49.369002 1.39411 16.126658 4.194348 8.783837 -29.778567 -22.386339 1.909834 1.672224 4.38866 -5.109816 4.829561 3.114825 -9.644303 1.597749 12.839455 -7.226454 -3.839338 2.475352 -26.23638 11.870939 -7.67336 -11.522841 -14.99029 -14.532284 -31.529403 -55.252443 6.08145 -25.861972 2.952893 12.084009 -57.237419 21.142783 -17.499926 -36.211437 17.112827 -15.796653 38.216298 51.350049 7.186108 13.75338 -6.784439 -9.126311 81.931007 -15.339431 -31.923732 23.272743
-0.725903 1.127273 0.860523 -0.330303 -7.445963 15.166498 20.431678 -18.581686 -7.225579 0.541761 30.996948 -1.196916 -27.183208 -0.99258 -4.261594 16.575759 -16.60157 -10.4762 -36.355789 -8.677657 -59.294182 -3.317094 48.758289 1.503732 16.303038 4.478672 8.717146 -29.592223 -22.936614 1.302382 1.859893 4.381961 -5.003457 4.987094 3.068763 -9.13092 1.572145 13.271798 -6.983646 -3.556193 2.890102 -26.318951 11.833905 -7.889775 -11.971683 -15.21829 -14.360304 -28.653685 -57.495484 6.799557 -24.288823 3.412482 11.327986 -57.762874 19.495342 -17.693084 -37.37662 16.321961 -16.660657 37.044811 51.065104 8.321575 15.49683 -6.500367 -4.775327 81.827432 -17.067521 -30.088841 20.930132
-0.729255 1.130304 0.863658 -0.496524 -7.455456 14.326477 20.776699 -17.75754 -7.081105 0.613247 30.196407 -1.011604 -28.062923 -0.968234 -3.982661 17.488299 -16.673357 -10.214628 -35.81038 -8.745243 -58.978147 -3.228806 47.89702 1.35862 16.316074 5.200304 9.036955 -29.452325 -23.365852 0.747976 2.055612 4.385725 -4.826416 5.100466 3.019684 -8.446856 1.518864 13.756669 -6.558899 -3.237819 3.370038 -26.392626 11.79794 -8.103721 -12.435963 -15.480369 -14.375054 -25.838961 -59.3301 7.590333 -22.932098 3.922952 10.737071 -58.150713 18.220533 -17.840856 -38.408059 15.587352 -17.699893 36.107704 50.398699 9.41045 17.256415 -6.162948 -0.16546 81.914069 -18.762648 -28.893613 18.718631
-0.729891 1.133565 0.865448 -0.71659 -7.496361 13.032246 21.007721 -16.905099 -6.781579 0.667316 29.739653 -0.858342 -28.711651 -1.31179 -3.604968 18.267181 -16.807355 -9.990872 -35.309487 -8.926114 -58.520262 -3.085417 46.828868 1.002061 16.185315 6.308334 9.730212 -29.392312 -23.708123 0.238833 2.260263 4.412563 -4.583386 5.202662 3.005688 -7.610011 1.462045 14.311169 -5.975089 -2.925526 3.846811 -26.459939 11.758401 -8.335461 -12.942809 -15.749536 -14.551666 -23.099381 -60.827767 8.388541 -21.869495 4.467875 10.299147 -58.447223 17.111875 -17.935174 -39.268847 14.93912 -18.797088 35.396512 49.524872 10.44521 19.036179 -5.864501 4.248933 82.123912 -20.332397 -27.959151 16.779317
-0.728504 1.136705 0.865777 -0.981695 -7.554772 11.492586 21.162521 -16.068034 -6.392431 0.667611 29.518538 -0.659736 -29.246932 -1.835276 -3.23566 18.987189 -16.993355 -9.763509 -34.816972 -9.19011 -57.97704 -2.958691 45.614657 0.679395 16.091435 7.608841 10.503283 -29.365241 -24.000594 -0.249199 2.463328 4.463687 -4.307264 5.340059 3.060608 -6.709479 1.439438 14.934715 -5.320814 -2.651129 4.235664 -26.512292 11.700557 -8.568913 -13.49552 -15.988968 -14.826635 -20.420432 -62.097324 9.186671 -21.155252 5.022019 9.874768 -58.717625 15.840928 -17.892897 -39.988942 14.334278 -19.848118 34.833798 48.636861 11.357107 20.918452 -5.613116 8.176078 82.403129 -21.681652 -26.913473 15.148769
-0.72587 1.139575 0.864972 -1.29841 -7.61441 9.9104 21.286044 -15.336255 -6.004633 0.638497 29.437237 -0.463012 -29.650246 -2.42187 -2.870854 19.707721 -17.215336 -9.503186 -34.284532 -9.504856 -57.359481 -2.846117 44.308847 0.472501 16.0624 8.90732 11.128786 -29.368889 -24.239938 -0.747187 2.657041 4.541789 -4.042386 5.565922 3.188743 -5.831185 1.486779 15.619109 -4.695975 -2.411513 4.509407 -26.535264 11.583375 -8.808042 -14.078755 -16.211839 -15.18903 -17.785016 -63.206325 10.077551 -20.739105 5.544145 9.306827 -58.912878 14.485569 -17.634911 -40.685146 13.750405 -20.868925 34.32043 47.778264 12.039656 22.936081 -5.374553 11.915893 82.734483 -22.788987 -25.988832 13.643546
-0.722172 1.14213 0.863474 -1.677445 -7.666881 8.408876 21.408177 -14.781473 -5.645709 0.622627 29.455785 -0.323561 -29.884401 -3.00141 -2.494482 20.442921 -17.453353 -9.217656 -33.679248 -9.853156 -56.701639 -2.746513 42.979608 0.338428 16.018697 10.110841 11.586322 -29.402167 -24.43496 -1.256922 2.850524 4.656115 -3.814277 5.893131 3.381203 -5.015976 1.615734 16.349085 -4.139341 -2.219211 4.720877 -26.523855 11.418941 -9.072203 -14.697616 -16.501955 -15.650925 -15.172852 -64.172911 11.099909 -20.550943 6.030107 8.555006 -59.017635 13.162467 -17.126369 -41.438238 13.191076 -21.880353 33.840288 46.946199 12.458116 25.013255 -5.108739 15.668304 83.139697 -23.719331 -25.301514 12.040203
-0.718632 1.144304 0.861694 -2.082691 -7.706307 7.124909 21.48995 -14.439299 -5.351464 0.650133 29.5536 -0.248376 -29.963293 -3.494259 -2.111927 21.153148 -17.660932 -8.950009 -33.026999 -10.187302 -56.066263 -2.694468 41.706041 0.283502 15.94347 11.163526 11.831553 -29.412157 -24.635634 -1.741076 3.040702 4.811059 -3.624808 6.275799 3.618523 -4.307045 1.791337 17.086208 -3.65677 -2.078433 4.928193 -26.514758 11.288974 -9.344724 -15.322899 -16.848975 -16.158413 -12.719651 -64.978736 12.137447 -20.523479 6.516948 7.671049 -59.070564 11.842518 -16.508218 -42.222263 12.692841 -22.780502 33.493445 46.195871 12.757468 27.019501 -4.924776 19.031355 83.474826 -24.451341 -24.785971 10.449155
-0.714867 1.146143 0.859735 -2.444825 -7.702875 6.220393 21.469936 -14.361052 -5.197889 0.729263 29.693806 -0.257886 -29.9486 -3.835759 -1.728067 21.836171 -17.768983 -8.74105 -32.390462 -10.471243 -55.499609 -2.749856 40.525249 0.359318 15.89554 11.997633 11.740921 -29.331104 -24.873193 -2.160531 3.210096 4.983277 -3.46414 6.638104 3.878556 -3.737239 1.946804 17.783415 -3.247448 -1.931192 5.133281 -26.557861 11.255065 -9.610975 -15.893545 -17.079328 -16.636333 -10.718785 -65.610227 12.999831 -20.521624 7.001484 6.729992 -59.08064 10.55792 -15.998121 -42.997925 12.3681 -23.415422 33.428215 45.60456 13.180193 28.841581 -5.048048 21.426942 83.436199 -24.859484 -24.561033 9.251663
-0.710774 1.147721 0.857582 -2.743339 -7.595609 5.793287 21.352499 -14.644416 -5.156939 0.833362 29.81333 -0.302183 -29.821956 -3.865423 -1.40037 22.525123 -17.76255 -8.576314 -31.802818 -10.769366 -55.089152 -2.987331 39.460215 0.624156 15.893131 12.577865 11.273364 -29.126262 -25.10571 -2.526307 3.355072 5.125867 -3.334579 6.966998 4.151236 -3.319256 2.061535 18.426446 -2.934157 -1.735866 5.314691 -26.632546 11.314488 -9.885447 -16.41569 -17.136059 -17.114652 -9.266081 -65.98708 13.687525 -20.445903 7.347245 5.76282 -59.097479 9.472512 -15.586919 -43.706832 12.253856 -23.83405 33.623751 45.17234 13.72547 30.500033 -5.376745 23.032711 83.131941 -25.145779 -24.485094 8.103651
-0.706367 1.149136 0.855021 -2.993658 -7.32196 5.814387 21.215845 -15.337816 -5.104621 0.911367 29.850222 -0.242526 -29.51743 -3.378314 -1.207062 23.188054 -17.710892 -8.425275 -31.291703 -11.175226 -54.9187 -3.385689 38.598577 1.036283 15.899864 12.889214 10.554282 -28.819207 -25.224095 -2.836212 3.477906 5.187132 -3.253619 7.287073 4.422564 -3.061132 2.164119 18.951367 -2.75623 -1.548986 5.44523 -26.681781 11.450353 -10.141947 -16.914313 -17.130257 -17.599273 -8.218132 -66.01767 14.315893 -20.362326 7.445787 4.813023 -59.221399 8.664089 -15.140286 -44.186642 12.235679 -24.161087 33.856608 44.874757 14.142194 32.023816 -5.556267 24.423145 83.033516 -25.665026 -24.137102 6.369179
-0.701947 1.150496 0.851609 -3.172282 -6.990961 6.035128 21.140236 -16.116643 -5.001258 0.940752 29.823092 -0.080058 -29.162597 -2.624549 -1.135991 23.677794 -17.682775 -8.314013 -30.928403 -11.582034 -54.919742 -3.743575 38.055674 1.395555 15.895482 12.976428 9.912906 -28.535194 -25.203191 -3.02878 3.567512 5.178613 -3.222051 7.540815 4.623236 -2.939834 2.252874 19.256303 -2.695747 -1.452615 5.511384 -26.688436 11.599709 -10.309065 -17.289542 -17.136485 -17.948226 -7.531335 -65.85204 14.814692 -20.368248 7.408716 4.10494 -59.392366 8.114992 -14.752944 -44.36205 12.206794 -24.37279 33.955219 44.729973 14.320257 33.150577 -5.541351 25.498526 83.185387 -26.215785 -23.610947 4.705988
